[{"OBJECT_NAME":"FENGYUN 1C DEB","OBJECT_ID":"1999-025JJ","EPOCH":"2026-03-14T13:58:14.626272","MEAN_MOTION":14.35415006,"ECCENTRICITY":0.01126738,"INCLINATION":98.6588,"RA_OF_ASC_NODE":192.2859,"ARG_OF_PERICENTER":275.7477,"MEAN_ANOMALY":83.0871,"EPHEMERIS_TYPE":0,"CLASSIFICATION_TYPE":"U","NORAD_CAT_ID":29936,"ELEMENT_SET_NO":999,"REV_AT_EPOCH":249,"BSTAR":0.00016133263,"MEAN_MOTION_DOT":4.5e-6,"MEAN_MOTION_DDOT":0},{"OBJECT_NAME":"FENGYUN 1C DEB","OBJECT_ID":"1999-025JK","EPOCH":"2026-03-14T14:47:19.356864","MEAN_MOTION":14.04379973,"ECCENTRICITY":0.00330058,"INCLINATION":98.7961,"RA_OF_ASC_NODE":96.7814,"ARG_OF_PERICENTER":121.4735,"MEAN_ANOMALY":355.4316,"EPHEMERIS_TYPE":0,"CLASSIFICATION_TYPE":"U","NORAD_CAT_ID":29937,"ELEMENT_SET_NO":999,"REV_AT_EPOCH":98225,"BSTAR":-8.7139626e-5,"MEAN_MOTION_DOT":-1.82e-6,"MEAN_MOTION_DDOT":0},{"OBJECT_NAME":"FENGYUN 1C DEB","OBJECT_ID":"1999-025JL","EPOCH":"2026-03-14T13:40:47.985312","MEAN_MOTION":14.07515868,"ECCENTRICITY":0.00344511,"INCLINATION":98.8116,"RA_OF_ASC_NODE":66.262,"ARG_OF_PERICENTER":52.2256,"MEAN_ANOMALY":66.2884,"EPHEMERIS_TYPE":0,"CLASSIFICATION_TYPE":"U","NORAD_CAT_ID":29938,"ELEMENT_SET_NO":999,"REV_AT_EPOCH":98348,"BSTAR":0.00028033601,"MEAN_MOTION_DOT":4.32e-6,"MEAN_MOTION_DDOT":0},{"OBJECT_NAME":"FENGYUN 1C DEB","OBJECT_ID":"1999-025JM","EPOCH":"2026-03-14T15:02:33.224352","MEAN_MOTION":14.12110257,"ECCENTRICITY":0.0065328,"INCLINATION":98.7148,"RA_OF_ASC_NODE":75.6204,"ARG_OF_PERICENTER":237.4319,"MEAN_ANOMALY":241.4014,"EPHEMERIS_TYPE":0,"CLASSIFICATION_TYPE":"U","NORAD_CAT_ID":29939,"ELEMENT_SET_NO":999,"REV_AT_EPOCH":98757,"BSTAR":5.246787e-5,"MEAN_MOTION_DOT":5.5e-7,"MEAN_MOTION_DDOT":0},{"OBJECT_NAME":"FENGYUN 1C DEB","OBJECT_ID":"1999-025JN","EPOCH":"2026-03-14T13:47:35.344896","MEAN_MOTION":14.19082096,"ECCENTRICITY":0.00735679,"INCLINATION":98.621,"RA_OF_ASC_NODE":85.7478,"ARG_OF_PERICENTER":194.1866,"MEAN_ANOMALY":289.1863,"EPHEMERIS_TYPE":0,"CLASSIFICATION_TYPE":"U","NORAD_CAT_ID":29940,"ELEMENT_SET_NO":999,"REV_AT_EPOCH":98790,"BSTAR":0.00053140518,"MEAN_MOTION_DOT":1.098e-5,"MEAN_MOTION_DDOT":0},{"OBJECT_NAME":"FENGYUN 1C DEB","OBJECT_ID":"1999-025JQ","EPOCH":"2026-03-14T14:23:28.802688","MEAN_MOTION":14.30789696,"ECCENTRICITY":0.0048666,"INCLINATION":98.6228,"RA_OF_ASC_NODE":143.7504,"ARG_OF_PERICENTER":8.2127,"MEAN_ANOMALY":351.9842,"EPHEMERIS_TYPE":0,"CLASSIFICATION_TYPE":"U","NORAD_CAT_ID":29942,"ELEMENT_SET_NO":999,"REV_AT_EPOCH":99182,"BSTAR":0.00061905227,"MEAN_MOTION_DOT":1.599e-5,"MEAN_MOTION_DDOT":0},{"OBJECT_NAME":"FENGYUN 1C DEB","OBJECT_ID":"1999-025JR","EPOCH":"2026-03-14T13:49:30.469440","MEAN_MOTION":14.09692458,"ECCENTRICITY":0.0035022,"INCLINATION":98.7275,"RA_OF_ASC_NODE":83.5336,"ARG_OF_PERICENTER":329.6875,"MEAN_ANOMALY":148.5325,"EPHEMERIS_TYPE":0,"CLASSIFICATION_TYPE":"U","NORAD_CAT_ID":29943,"ELEMENT_SET_NO":999,"REV_AT_EPOCH":98600,"BSTAR":3.1057733e-5,"MEAN_MOTION_DOT":1.2e-7,"MEAN_MOTION_DDOT":0},{"OBJECT_NAME":"FENGYUN 1C DEB","OBJECT_ID":"1999-025JS","EPOCH":"2026-03-14T08:47:25.079136","MEAN_MOTION":14.89999796,"ECCENTRICITY":0.01597436,"INCLINATION":99.0125,"RA_OF_ASC_NODE":24.9427,"ARG_OF_PERICENTER":300.4295,"MEAN_ANOMALY":58.1217,"EPHEMERIS_TYPE":0,"CLASSIFICATION_TYPE":"U","NORAD_CAT_ID":29944,"ELEMENT_SET_NO":999,"REV_AT_EPOCH":1817,"BSTAR":0.0011782361,"MEAN_MOTION_DOT":0.00014413,"MEAN_MOTION_DDOT":0},{"OBJECT_NAME":"FENGYUN 1C DEB","OBJECT_ID":"1999-025JT","EPOCH":"2026-03-14T14:05:35.013984","MEAN_MOTION":14.05613851,"ECCENTRICITY":0.00320097,"INCLINATION":98.784,"RA_OF_ASC_NODE":99.4459,"ARG_OF_PERICENTER":102.7038,"MEAN_ANOMALY":9.8015,"EPHEMERIS_TYPE":0,"CLASSIFICATION_TYPE":"U","NORAD_CAT_ID":29945,"ELEMENT_SET_NO":999,"REV_AT_EPOCH":98268,"BSTAR":0.00026338179,"MEAN_MOTION_DOT":3.88e-6,"MEAN_MOTION_DDOT":0},{"OBJECT_NAME":"FENGYUN 1C DEB","OBJECT_ID":"1999-025JU","EPOCH":"2026-03-14T11:32:31.410240","MEAN_MOTION":14.08342997,"ECCENTRICITY":0.00818271,"INCLINATION":98.7885,"RA_OF_ASC_NODE":68.3029,"ARG_OF_PERICENTER":84.1315,"MEAN_ANOMALY":45.0718,"EPHEMERIS_TYPE":0,"CLASSIFICATION_TYPE":"U","NORAD_CAT_ID":29946,"ELEMENT_SET_NO":999,"REV_AT_EPOCH":98338,"BSTAR":0.00022326159,"MEAN_MOTION_DOT":3.52e-6,"MEAN_MOTION_DDOT":0},{"OBJECT_NAME":"FENGYUN 1C DEB","OBJECT_ID":"1999-025JV","EPOCH":"2026-03-14T14:36:19.615968","MEAN_MOTION":14.03139034,"ECCENTRICITY":0.00395198,"INCLINATION":98.8262,"RA_OF_ASC_NODE":106.4517,"ARG_OF_PERICENTER":223.4165,"MEAN_ANOMALY":256.911,"EPHEMERIS_TYPE":0,"CLASSIFICATION_TYPE":"U","NORAD_CAT_ID":29947,"ELEMENT_SET_NO":999,"REV_AT_EPOCH":98038,"BSTAR":0.00042530731,"MEAN_MOTION_DOT":6.24e-6,"MEAN_MOTION_DDOT":0},{"OBJECT_NAME":"FENGYUN 1C DEB","OBJECT_ID":"1999-025JW","EPOCH":"2026-03-14T10:31:17.042880","MEAN_MOTION":14.0624448,"ECCENTRICITY":0.00841454,"INCLINATION":98.8352,"RA_OF_ASC_NODE":62.3458,"ARG_OF_PERICENTER":337.2989,"MEAN_ANOMALY":176.1996,"EPHEMERIS_TYPE":0,"CLASSIFICATION_TYPE":"U","NORAD_CAT_ID":29948,"ELEMENT_SET_NO":999,"REV_AT_EPOCH":98265,"BSTAR":0.00019994549,"MEAN_MOTION_DOT":2.96e-6,"MEAN_MOTION_DDOT":0},{"OBJECT_NAME":"FENGYUN 1C DEB","OBJECT_ID":"1999-025JX","EPOCH":"2026-03-14T14:45:26.307648","MEAN_MOTION":14.0684554,"ECCENTRICITY":0.00248832,"INCLINATION":98.7588,"RA_OF_ASC_NODE":91.418,"ARG_OF_PERICENTER":47.3574,"MEAN_ANOMALY":76.1227,"EPHEMERIS_TYPE":0,"CLASSIFICATION_TYPE":"U","NORAD_CAT_ID":29949,"ELEMENT_SET_NO":999,"REV_AT_EPOCH":98399,"BSTAR":-1.1140135e-5,"MEAN_MOTION_DOT":-6.1e-7,"MEAN_MOTION_DDOT":0},{"OBJECT_NAME":"FENGYUN 1C DEB","OBJECT_ID":"1999-025JY","EPOCH":"2026-03-14T15:05:35.700288","MEAN_MOTION":14.10380427,"ECCENTRICITY":0.00326852,"INCLINATION":98.7297,"RA_OF_ASC_NODE":107.096,"ARG_OF_PERICENTER":344.5083,"MEAN_ANOMALY":128.786,"EPHEMERIS_TYPE":0,"CLASSIFICATION_TYPE":"U","NORAD_CAT_ID":29950,"ELEMENT_SET_NO":999,"REV_AT_EPOCH":98586,"BSTAR":0.00012954321,"MEAN_MOTION_DOT":1.88e-6,"MEAN_MOTION_DDOT":0},{"OBJECT_NAME":"FENGYUN 1C DEB","OBJECT_ID":"1999-025KB","EPOCH":"2026-03-14T11:03:09.810144","MEAN_MOTION":13.90940759,"ECCENTRICITY":0.01069791,"INCLINATION":98.9483,"RA_OF_ASC_NODE":61.9708,"ARG_OF_PERICENTER":16.775,"MEAN_ANOMALY":134.0472,"EPHEMERIS_TYPE":0,"CLASSIFICATION_TYPE":"U","NORAD_CAT_ID":29953,"ELEMENT_SET_NO":999,"REV_AT_EPOCH":97137,"BSTAR":0.00043569682,"MEAN_MOTION_DOT":5.3e-6,"MEAN_MOTION_DDOT":0},{"OBJECT_NAME":"FENGYUN 1C DEB","OBJECT_ID":"1999-025KC","EPOCH":"2026-03-14T13:59:43.842048","MEAN_MOTION":14.34711688,"ECCENTRICITY":0.00732082,"INCLINATION":100.1383,"RA_OF_ASC_NODE":132.5199,"ARG_OF_PERICENTER":11.7281,"MEAN_ANOMALY":348.5583,"EPHEMERIS_TYPE":0,"CLASSIFICATION_TYPE":"U","NORAD_CAT_ID":29954,"ELEMENT_SET_NO":999,"REV_AT_EPOCH":99504,"BSTAR":0.00078463569,"MEAN_MOTION_DOT":2.233e-5,"MEAN_MOTION_DDOT":0}]
