FENGYUN 1C DEB          
1 29936U 99025JJ  26073.58211373  .00000450  00000+0  16133-3 0  9997
2 29936  98.6588 192.2859 0112673 275.7477  83.0871 14.35415006  2491
FENGYUN 1C DEB          
1 29937U 99025JK  26073.61619626 -.00000182  00000+0 -87140-4 0  9996
2 29937  98.7961  96.7814 0033005 121.4735 355.4316 14.04379973982251
FENGYUN 1C DEB          
1 29938U 99025JL  26073.56999983  .00000432  00000+0  28034-3 0  9990
2 29938  98.8116  66.2620 0034451  52.2256  66.2884 14.07515868983488
FENGYUN 1C DEB          
1 29939U 99025JM  26073.62677343  .00000055  00000+0  52468-4 0  9991
2 29939  98.7148  75.6204 0065328 237.4319 241.4014 14.12110257987574
FENGYUN 1C DEB          
1 29940U 99025JN  26073.57471464  .00001098  00000+0  53141-3 0  9999
2 29940  98.6210  85.7478 0073567 194.1866 289.1863 14.19082096987904
FENGYUN 1C DEB          
1 29942U 99025JQ  26073.59963892  .00001599  00000+0  61905-3 0  9997
2 29942  98.6228 143.7504 0048666   8.2127 351.9842 14.30789696991821
FENGYUN 1C DEB          
1 29943U 99025JR  26073.57604710  .00000012  00000+0  31058-4 0  9993
2 29943  98.7275  83.5336 0035022 329.6875 148.5325 14.09692458986006
FENGYUN 1C DEB          
1 29944U 99025JS  26073.36626249  .00014413  00000+0  11782-2 0  9992
2 29944  99.0125  24.9427 0159743 300.4295  58.1217 14.89999796 18178
FENGYUN 1C DEB          
1 29945U 99025JT  26073.58721081  .00000388  00000+0  26338-3 0  9997
2 29945  98.7840  99.4459 0032009 102.7038   9.8015 14.05613851982682
FENGYUN 1C DEB          
1 29946U 99025JU  26073.48091910  .00000352  00000+0  22326-3 0  9992
2 29946  98.7885  68.3029 0081827  84.1315  45.0718 14.08342997983386
FENGYUN 1C DEB          
1 29947U 99025JV  26073.60856037  .00000624  00000+0  42531-3 0  9998
2 29947  98.8262 106.4517 0039519 223.4165 256.9110 14.03139034980382
FENGYUN 1C DEB          
1 29948U 99025JW  26073.43839170  .00000296  00000+0  19995-3 0  9992
2 29948  98.8352  62.3458 0084145 337.2989 176.1996 14.06244480982652
FENGYUN 1C DEB          
1 29949U 99025JX  26073.61488782 -.00000061  00000+0 -11140-4 0  9999
2 29949  98.7588  91.4180 0024883  47.3574  76.1227 14.06845540983998
FENGYUN 1C DEB          
1 29950U 99025JY  26073.62888542  .00000188  00000+0  12954-3 0  9991
2 29950  98.7297 107.0960 0032685 344.5083 128.7860 14.10380427985861
FENGYUN 1C DEB          
1 29953U 99025KB  26073.46053021  .00000530  00000+0  43570-3 0  9991
2 29953  98.9483  61.9708 0106979  16.7750 134.0472 13.90940759971375
FENGYUN 1C DEB          
1 29954U 99025KC  26073.58314632  .00002233  00000+0  78464-3 0  9995
2 29954 100.1383 132.5199 0073208  11.7281 348.5583 14.34711688995043
